<?xml version="1.0" encoding="UTF-8"?>
<ndm xmlns:xsi="http://www.w3.org/2001/XMLSchema-instance" xsi:noNamespaceSchemaLocation="https://sanaregistry.org/r/ndmxml_unqualified/ndmxml-2.0.0-master-2.0.xsd">
<omm id="CCSDS_OMM_VERS" version="2.0">
<header><CREATION_DATE/><ORIGINATOR/></header><body><segment><metadata><OBJECT_NAME>ORBCOMM FM20</OBJECT_NAME><OBJECT_ID>1998-046D</OBJECT_ID><CENTER_NAME>EARTH</CENTER_NAME><REF_FRAME>TEME</REF_FRAME><TIME_SYSTEM>UTC</TIME_SYSTEM><MEAN_ELEMENT_THEORY>SGP4</MEAN_ELEMENT_THEORY></metadata><data><meanElements><EPOCH>2025-07-14T07:07:47.774208</EPOCH><MEAN_MOTION>14.37247281</MEAN_MOTION><ECCENTRICITY>.000139</ECCENTRICITY><INCLINATION>44.9950</INCLINATION><RA_OF_ASC_NODE>52.8809</RA_OF_ASC_NODE><ARG_OF_PERICENTER>60.3867</ARG_OF_PERICENTER><MEAN_ANOMALY>299.7119</MEAN_ANOMALY></meanElements><tleParameters><EPHEMERIS_TYPE>0</EPHEMERIS_TYPE><CLASSIFICATION_TYPE>U</CLASSIFICATION_TYPE><NORAD_CAT_ID>25416</NORAD_CAT_ID><ELEMENT_SET_NO>999</ELEMENT_SET_NO><REV_AT_EPOCH>40816</REV_AT_EPOCH><BSTAR>.18005E-3</BSTAR><MEAN_MOTION_DOT>.399E-5</MEAN_MOTION_DOT><MEAN_MOTION_DDOT>0</MEAN_MOTION_DDOT></tleParameters></data></segment></body></omm>
<omm id="CCSDS_OMM_VERS" version="2.0">
<header><CREATION_DATE/><ORIGINATOR/></header><body><segment><metadata><OBJECT_NAME>ORBCOMM FM16</OBJECT_NAME><OBJECT_ID>1998-046E</OBJECT_ID><CENTER_NAME>EARTH</CENTER_NAME><REF_FRAME>TEME</REF_FRAME><TIME_SYSTEM>UTC</TIME_SYSTEM><MEAN_ELEMENT_THEORY>SGP4</MEAN_ELEMENT_THEORY></metadata><data><meanElements><EPOCH>2025-07-14T14:35:28.843008</EPOCH><MEAN_MOTION>14.38964722</MEAN_MOTION><ECCENTRICITY>.000512</ECCENTRICITY><INCLINATION>44.9946</INCLINATION><RA_OF_ASC_NODE>42.6182</RA_OF_ASC_NODE><ARG_OF_PERICENTER>78.4558</ARG_OF_PERICENTER><MEAN_ANOMALY>281.6865</MEAN_ANOMALY></meanElements><tleParameters><EPHEMERIS_TYPE>0</EPHEMERIS_TYPE><CLASSIFICATION_TYPE>U</CLASSIFICATION_TYPE><NORAD_CAT_ID>25417</NORAD_CAT_ID><ELEMENT_SET_NO>999</ELEMENT_SET_NO><REV_AT_EPOCH>40820</REV_AT_EPOCH><BSTAR>.22733E-3</BSTAR><MEAN_MOTION_DOT>.565E-5</MEAN_MOTION_DOT><MEAN_MOTION_DDOT>0</MEAN_MOTION_DDOT></tleParameters></data></segment></body></omm>
<omm id="CCSDS_OMM_VERS" version="2.0">
<header><CREATION_DATE/><ORIGINATOR/></header><body><segment><metadata><OBJECT_NAME>ORBCOMM FM15</OBJECT_NAME><OBJECT_ID>1998-046F</OBJECT_ID><CENTER_NAME>EARTH</CENTER_NAME><REF_FRAME>TEME</REF_FRAME><TIME_SYSTEM>UTC</TIME_SYSTEM><MEAN_ELEMENT_THEORY>SGP4</MEAN_ELEMENT_THEORY></metadata><data><meanElements><EPOCH>2025-07-14T14:10:55.243488</EPOCH><MEAN_MOTION>14.38606712</MEAN_MOTION><ECCENTRICITY>.0004738</ECCENTRICITY><INCLINATION>44.9979</INCLINATION><RA_OF_ASC_NODE>47.9261</RA_OF_ASC_NODE><ARG_OF_PERICENTER>76.8311</ARG_OF_PERICENTER><MEAN_ANOMALY>283.3065</MEAN_ANOMALY></meanElements><tleParameters><EPHEMERIS_TYPE>0</EPHEMERIS_TYPE><CLASSIFICATION_TYPE>U</CLASSIFICATION_TYPE><NORAD_CAT_ID>25418</NORAD_CAT_ID><ELEMENT_SET_NO>999</ELEMENT_SET_NO><REV_AT_EPOCH>40819</REV_AT_EPOCH><BSTAR>.25101E-3</BSTAR><MEAN_MOTION_DOT>.633E-5</MEAN_MOTION_DOT><MEAN_MOTION_DDOT>0</MEAN_MOTION_DDOT></tleParameters></data></segment></body></omm>
<omm id="CCSDS_OMM_VERS" version="2.0">
<header><CREATION_DATE/><ORIGINATOR/></header><body><segment><metadata><OBJECT_NAME>ORBCOMM FM14</OBJECT_NAME><OBJECT_ID>1998-046G</OBJECT_ID><CENTER_NAME>EARTH</CENTER_NAME><REF_FRAME>TEME</REF_FRAME><TIME_SYSTEM>UTC</TIME_SYSTEM><MEAN_ELEMENT_THEORY>SGP4</MEAN_ELEMENT_THEORY></metadata><data><meanElements><EPOCH>2025-07-14T14:26:35.556288</EPOCH><MEAN_MOTION>14.38970014</MEAN_MOTION><ECCENTRICITY>.0003588</ECCENTRICITY><INCLINATION>44.9966</INCLINATION><RA_OF_ASC_NODE>46.0325</RA_OF_ASC_NODE><ARG_OF_PERICENTER>72.9315</ARG_OF_PERICENTER><MEAN_ANOMALY>287.1926</MEAN_ANOMALY></meanElements><tleParameters><EPHEMERIS_TYPE>0</EPHEMERIS_TYPE><CLASSIFICATION_TYPE>U</CLASSIFICATION_TYPE><NORAD_CAT_ID>25419</NORAD_CAT_ID><ELEMENT_SET_NO>999</ELEMENT_SET_NO><REV_AT_EPOCH>40816</REV_AT_EPOCH><BSTAR>.24595E-3</BSTAR><MEAN_MOTION_DOT>.623E-5</MEAN_MOTION_DOT><MEAN_MOTION_DDOT>0</MEAN_MOTION_DDOT></tleParameters></data></segment></body></omm>
<omm id="CCSDS_OMM_VERS" version="2.0">
<header><CREATION_DATE/><ORIGINATOR/></header><body><segment><metadata><OBJECT_NAME>ORBCOMM FM13</OBJECT_NAME><OBJECT_ID>1998-046H</OBJECT_ID><CENTER_NAME>EARTH</CENTER_NAME><REF_FRAME>TEME</REF_FRAME><TIME_SYSTEM>UTC</TIME_SYSTEM><MEAN_ELEMENT_THEORY>SGP4</MEAN_ELEMENT_THEORY></metadata><data><meanElements><EPOCH>2025-07-14T07:44:57.056640</EPOCH><MEAN_MOTION>14.37715387</MEAN_MOTION><ECCENTRICITY>.0005674</ECCENTRICITY><INCLINATION>44.9982</INCLINATION><RA_OF_ASC_NODE>55.5985</RA_OF_ASC_NODE><ARG_OF_PERICENTER>54.0216</ARG_OF_PERICENTER><MEAN_ANOMALY>306.1157</MEAN_ANOMALY></meanElements><tleParameters><EPHEMERIS_TYPE>0</EPHEMERIS_TYPE><CLASSIFICATION_TYPE>U</CLASSIFICATION_TYPE><NORAD_CAT_ID>25420</NORAD_CAT_ID><ELEMENT_SET_NO>999</ELEMENT_SET_NO><REV_AT_EPOCH>40714</REV_AT_EPOCH><BSTAR>.22954E-3</BSTAR><MEAN_MOTION_DOT>.554E-5</MEAN_MOTION_DOT><MEAN_MOTION_DDOT>0</MEAN_MOTION_DDOT></tleParameters></data></segment></body></omm>
<omm id="CCSDS_OMM_VERS" version="2.0">
<header><CREATION_DATE/><ORIGINATOR/></header><body><segment><metadata><OBJECT_NAME>ORBCOMM FM21</OBJECT_NAME><OBJECT_ID>1998-053A</OBJECT_ID><CENTER_NAME>EARTH</CENTER_NAME><REF_FRAME>TEME</REF_FRAME><TIME_SYSTEM>UTC</TIME_SYSTEM><MEAN_ELEMENT_THEORY>SGP4</MEAN_ELEMENT_THEORY></metadata><data><meanElements><EPOCH>2025-07-14T08:02:56.237568</EPOCH><MEAN_MOTION>14.37387029</MEAN_MOTION><ECCENTRICITY>.0003164</ECCENTRICITY><INCLINATION>45.0074</INCLINATION><RA_OF_ASC_NODE>140.9250</RA_OF_ASC_NODE><ARG_OF_PERICENTER>334.8179</ARG_OF_PERICENTER><MEAN_ANOMALY>25.2515</MEAN_ANOMALY></meanElements><tleParameters><EPHEMERIS_TYPE>0</EPHEMERIS_TYPE><CLASSIFICATION_TYPE>U</CLASSIFICATION_TYPE><NORAD_CAT_ID>25475</NORAD_CAT_ID><ELEMENT_SET_NO>999</ELEMENT_SET_NO><REV_AT_EPOCH>40115</REV_AT_EPOCH><BSTAR>.2327E-3</BSTAR><MEAN_MOTION_DOT>.559E-5</MEAN_MOTION_DOT><MEAN_MOTION_DDOT>0</MEAN_MOTION_DDOT></tleParameters></data></segment></body></omm>
<omm id="CCSDS_OMM_VERS" version="2.0">
<header><CREATION_DATE/><ORIGINATOR/></header><body><segment><metadata><OBJECT_NAME>ORBCOMM FM22</OBJECT_NAME><OBJECT_ID>1998-053B</OBJECT_ID><CENTER_NAME>EARTH</CENTER_NAME><REF_FRAME>TEME</REF_FRAME><TIME_SYSTEM>UTC</TIME_SYSTEM><MEAN_ELEMENT_THEORY>SGP4</MEAN_ELEMENT_THEORY></metadata><data><meanElements><EPOCH>2025-07-14T13:27:50.806944</EPOCH><MEAN_MOTION>14.38433564</MEAN_MOTION><ECCENTRICITY>.0004862</ECCENTRICITY><INCLINATION>45.0068</INCLINATION><RA_OF_ASC_NODE>134.4877</RA_OF_ASC_NODE><ARG_OF_PERICENTER>347.7654</ARG_OF_PERICENTER><MEAN_ANOMALY>12.3076</MEAN_ANOMALY></meanElements><tleParameters><EPHEMERIS_TYPE>0</EPHEMERIS_TYPE><CLASSIFICATION_TYPE>U</CLASSIFICATION_TYPE><NORAD_CAT_ID>25476</NORAD_CAT_ID><ELEMENT_SET_NO>999</ELEMENT_SET_NO><REV_AT_EPOCH>40121</REV_AT_EPOCH><BSTAR>.22186E-3</BSTAR><MEAN_MOTION_DOT>.541E-5</MEAN_MOTION_DOT><MEAN_MOTION_DDOT>0</MEAN_MOTION_DDOT></tleParameters></data></segment></body></omm>
<omm id="CCSDS_OMM_VERS" version="2.0">
<header><CREATION_DATE/><ORIGINATOR/></header><body><segment><metadata><OBJECT_NAME>ORBCOMM FM23</OBJECT_NAME><OBJECT_ID>1998-053C</OBJECT_ID><CENTER_NAME>EARTH</CENTER_NAME><REF_FRAME>TEME</REF_FRAME><TIME_SYSTEM>UTC</TIME_SYSTEM><MEAN_ELEMENT_THEORY>SGP4</MEAN_ELEMENT_THEORY></metadata><data><meanElements><EPOCH>2025-07-14T04:38:51.512064</EPOCH><MEAN_MOTION>14.37571434</MEAN_MOTION><ECCENTRICITY>.0004177</ECCENTRICITY><INCLINATION>45.0072</INCLINATION><RA_OF_ASC_NODE>143.6814</RA_OF_ASC_NODE><ARG_OF_PERICENTER>337.1351</ARG_OF_PERICENTER><MEAN_ANOMALY>22.9310</MEAN_ANOMALY></meanElements><tleParameters><EPHEMERIS_TYPE>0</EPHEMERIS_TYPE><CLASSIFICATION_TYPE>U</CLASSIFICATION_TYPE><NORAD_CAT_ID>25477</NORAD_CAT_ID><ELEMENT_SET_NO>999</ELEMENT_SET_NO><REV_AT_EPOCH>40128</REV_AT_EPOCH><BSTAR>.23031E-3</BSTAR><MEAN_MOTION_DOT>.555E-5</MEAN_MOTION_DOT><MEAN_MOTION_DDOT>0</MEAN_MOTION_DDOT></tleParameters></data></segment></body></omm>

</ndm>
