25417,ORBCOMM FM16,1998,100.07,-1.0,-,44.99,Inactive,0,LEO,Eastern Range Airspace,ORBCOMM,Unknown,Unknown,Unknown,1 25417U 98046E   25195.60797272  .00000565  00000+0  22733-3 0  9993,2 25417  44.9946  42.6182 0005120  78.4558 281.6865 14.38964722408201,14.38964722,0.000512,LEO
25418,ORBCOMM FM15,1998,100.1,45.0,-,45.0,Inactive,1,LEO,Eastern Range Airspace,ORBCOMM,Commercial,Communications,Pegasus,1 25418U 98046F   25195.59091717  .00000633  00000+0  25101-3 0  9991,2 25418  44.9979  47.9261 0004738  76.8311 283.3065 14.38606712408198,14.38606712,0.0004738,LEO
25419,ORBCOMM FM14,1998,100.07,45.0,-,45.0,Inactive,1,LEO,Eastern Range Airspace,ORBCOMM,Commercial,Communications,Pegasus,1 25419U 98046G   25195.60180042  .00000623  00000+0  24595-3 0  9999,2 25419  44.9966  46.0325 0003588  72.9315 287.1926 14.38970014408163,14.38970014,0.0003588,LEO
25475,ORBCOMM FM21,1998,100.18,45.0,-,45.01,Inactive,1,LEO,Eastern Range Airspace,ORBCOMM,Commercial,Communications,Pegasus,1 25475U 98053A   25195.33537312  .00000559  00000+0  23270-3 0  9992,2 25475  45.0074 140.9250 0003164 334.8179  25.2515 14.37387029401150,14.37387029,0.0003164,LEO
25476,ORBCOMM FM22,1998,100.11,-1.0,-,45.01,Inactive,0,LEO,Eastern Range Airspace,ORBCOMM,Unknown,Unknown,Unknown,1 25476U 98053B   25195.56100471  .00000541  00000+0  22186-3 0  9996,2 25476  45.0068 134.4877 0004862 347.7654  12.3076 14.38433564401217,14.38433564,0.0004862,LEO
25477,ORBCOMM FM23,1998,100.17,45.0,-,45.01,Inactive,1,LEO,Eastern Range Airspace,ORBCOMM,Commercial,Communications,Pegasus,1 25477U 98053C   25195.19365176  .00000555  00000+0  23031-3 0  9996,2 25477  45.0072 143.6814 0004177 337.1351  22.9310 14.37571434401285,14.37571434,0.0004177,LEO
25420,ORBCOMM FM13,1998,100.16,45.0,-,45.0,Inactive,1,LEO,Eastern Range Airspace,ORBCOMM,Commercial,Communications,Pegasus,1 25420U 98046H   25195.32288260  .00000554  00000+0  22954-3 0  9991,2 25420  44.9982  55.5985 0005674  54.0216 306.1157 14.37715387407143,14.37715387,0.0005674,LEO
25416,ORBCOMM FM20,1998,100.19,45.0,+,44.99,Active,1,LEO,Eastern Range Airspace,ORBCOMM,Commercial,Communications,Pegasus,1 25416U 98046D   25195.29708072  .00000399  00000+0  18005-3 0  9999,2 25416  44.9950  52.8809 0001390  60.3867 299.7119 14.37247281408162,14.37247281,0.000139,LEO
